IRIDIUM 144             
1 43249U 18030A   24029.28693716  .00000044  00000+0  85111-5 0  9991
2 43249  86.3970 293.9673 0001915  88.2632 271.8783 14.34217560305457
IRIDIUM 149             
1 43250U 18030B   24029.29328021  .00000133  00000+0  40454-4 0  9997
2 43250  86.3969 293.9413 0001909  92.7283 267.4131 14.34217978305477
IRIDIUM 157             
1 43251U 18030C   24029.73091829  .00000454  00000+0  15492-3 0  9999
2 43251  86.3971 293.7921 0002325  84.5198 275.6263 14.34218167305513
IRIDIUM 140             
1 43252U 18030D   24029.26156460  .00000164  00000+0  51528-4 0  9990
2 43252  86.3971 294.0029 0001632  87.8076 272.3306 14.34218733305508
IRIDIUM 145             
1 43253U 18030E   24029.24887677  .00000471  00000+0  16098-3 0  9993
2 43253  86.3971 293.9825 0001846  93.4793 266.6614 14.34221139305431
IRIDIUM 146             
1 43254U 18030F   24029.22985382  .00000495  00000+0  16965-3 0  9993
2 43254  86.3970 294.0058 0001860  92.3741 267.7668 14.34218582305448
IRIDIUM 148             
1 43255U 18030G   24029.68651803  .00000258  00000+0  84925-4 0  9991
2 43255  86.3971 293.8450 0002256  93.1116 267.0338 14.34217264305553
IRIDIUM 142             
1 43256U 18030H   24029.23619167  .00000043  00000+0  83534-5 0  9998
2 43256  86.3970 293.9536 0001993  93.3472 266.7952 14.34215491305449
